COSMOS 2151             
1 21422U 91042A   25334.94655047  .00001657  00000+0  13220-3 0  9993
2 21422  82.4967 178.8671 0013518  38.2554 321.9626 14.99618990848399
SL-14 R/B               
1 21423U 91042B   25334.96418452  .00000529  00000+0  64125-4 0  9991
2 21423  82.4917 312.7666 0016408 200.6154 159.4400 14.81721032838453
ERS-1                   
1 21574U 91050A   25334.98882544  .00000379  00000+0  13597-3 0  9995
2 21574  98.7912 345.7496 0032750 133.8962 226.4938 14.39350048801532
ARIANE 40 R/B           
1 21610U 91050F   25334.99701160  .00000401  00000+0  13288-3 0  9994
2 21610  98.2183  25.8505 0003500  33.2564 326.8846 14.42797184804768
INTERCOSMOS 25          
1 21819U 91086A   25334.82914474  .00002272  00000+0  44979-3 0  9999
2 21819  82.6067   9.7787 1487224 330.0895  22.2648 12.11659360484718
SL-8 R/B                
1 21876U 92008B   25334.97203495  .00000171  00000+0  15975-3 0  9997
2 21876  82.9264 341.2005 0035785  51.9706  10.3783 13.75955094695840
SL-8 R/B                
1 21938U 92020B   25334.76573843  .00000059  00000+0  45564-4 0  9997
2 21938  82.9314 227.2081 0028160 212.0703 207.4202 13.75524444687531
USA 81                  
1 21949U 92023A   25334.94827422  .00000206  00000+0  68924-4 0  9996
2 21949  85.0089 188.3761 0001948  63.5229 296.6164 14.32320096 80653
COSMOS 2219             
1 22219U 92076A   25334.98188581 -.00000259  00000+0 -11098-3 0  9994
2 22219  71.0596 224.4105 0018775 343.1284  16.9212 14.14064658704424
SL-16 R/B               
1 22220U 92076B   25334.94876753  .00000157  00000+0  10223-3 0  9991
2 22220  71.0017  36.3694 0015070 249.6520 283.1014 14.16840364707840
COSMOS 2221             
1 22236U 92080A   25334.57532544  .00002039  00000+0  18063-3 0  9990
2 22236  82.5056  13.9683 0015167 159.9912 200.1907 14.95687387765970
SL-16 R/B               
1 22285U 92093B   25334.94199761 -.00000214  00000+0 -85409-4 0  9993
2 22285  71.0203 211.5608 0001941 108.0663 252.0671 14.15425957699185
