CCSDS_OMM_VERS = 2.0
CREATION_DATE  = 
ORIGINATOR     = 

OBJECT_NAME    = COSMOS 2151
OBJECT_ID      = 1991-042A
CENTER_NAME    = EARTH
REF_FRAME      = TEME
TIME_SYSTEM    = UTC
MEAN_ELEMENT_THEORY = SGP/SGP4

EPOCH          = 2025-11-30T22:43:01.960608
MEAN_MOTION    = 14.99618990
ECCENTRICITY   = .0013518
INCLINATION    = 82.4967
RA_OF_ASC_NODE = 178.8671
ARG_OF_PERICENTER = 38.2554
MEAN_ANOMALY   = 321.9626

EPHEMERIS_TYPE = 0
CLASSIFICATION_TYPE = U
NORAD_CAT_ID   = 21422
ELEMENT_SET_NO = 999
REV_AT_EPOCH   = 84839
BSTAR          = .13219724E-3
MEAN_MOTION_DOT = .1657E-4
MEAN_MOTION_DDOT = 0

CCSDS_OMM_VERS = 2.0
CREATION_DATE  = 
ORIGINATOR     = 

OBJECT_NAME    = SL-14 R/B
OBJECT_ID      = 1991-042B
CENTER_NAME    = EARTH
REF_FRAME      = TEME
TIME_SYSTEM    = UTC
MEAN_ELEMENT_THEORY = SGP/SGP4

EPOCH          = 2025-11-30T23:08:25.542528
MEAN_MOTION    = 14.81721032
ECCENTRICITY   = .00164088
INCLINATION    = 82.4917
RA_OF_ASC_NODE = 312.7666
ARG_OF_PERICENTER = 200.6154
MEAN_ANOMALY   = 159.4400

EPHEMERIS_TYPE = 0
CLASSIFICATION_TYPE = U
NORAD_CAT_ID   = 21423
ELEMENT_SET_NO = 999
REV_AT_EPOCH   = 83845
BSTAR          = .6412506E-4
MEAN_MOTION_DOT = .529E-5
MEAN_MOTION_DDOT = 0

CCSDS_OMM_VERS = 2.0
CREATION_DATE  = 
ORIGINATOR     = 

OBJECT_NAME    = ERS-1
OBJECT_ID      = 1991-050A
CENTER_NAME    = EARTH
REF_FRAME      = TEME
TIME_SYSTEM    = UTC
MEAN_ELEMENT_THEORY = SGP/SGP4

EPOCH          = 2025-11-30T23:43:54.518016
MEAN_MOTION    = 14.39350048
ECCENTRICITY   = .00327509
INCLINATION    = 98.7912
RA_OF_ASC_NODE = 345.7496
ARG_OF_PERICENTER = 133.8962
MEAN_ANOMALY   = 226.4938

EPHEMERIS_TYPE = 0
CLASSIFICATION_TYPE = U
NORAD_CAT_ID   = 21574
ELEMENT_SET_NO = 999
REV_AT_EPOCH   = 80153
BSTAR          = .13596588E-3
MEAN_MOTION_DOT = .379E-5
MEAN_MOTION_DDOT = 0

CCSDS_OMM_VERS = 2.0
CREATION_DATE  = 
ORIGINATOR     = 

OBJECT_NAME    = ARIANE 40 R/B
OBJECT_ID      = 1991-050F
CENTER_NAME    = EARTH
REF_FRAME      = TEME
TIME_SYSTEM    = UTC
MEAN_ELEMENT_THEORY = SGP/SGP4

EPOCH          = 2025-11-30T23:55:41.802240
MEAN_MOTION    = 14.42797184
ECCENTRICITY   = .00035002
INCLINATION    = 98.2183
RA_OF_ASC_NODE = 25.8505
ARG_OF_PERICENTER = 33.2564
MEAN_ANOMALY   = 326.8846

EPHEMERIS_TYPE = 0
CLASSIFICATION_TYPE = U
NORAD_CAT_ID   = 21610
ELEMENT_SET_NO = 999
REV_AT_EPOCH   = 80476
BSTAR          = .13287546E-3
MEAN_MOTION_DOT = .401E-5
MEAN_MOTION_DDOT = 0

CCSDS_OMM_VERS = 2.0
CREATION_DATE  = 
ORIGINATOR     = 

OBJECT_NAME    = INTERCOSMOS 25
OBJECT_ID      = 1991-086A
CENTER_NAME    = EARTH
REF_FRAME      = TEME
TIME_SYSTEM    = UTC
MEAN_ELEMENT_THEORY = SGP/SGP4

EPOCH          = 2025-11-30T19:53:58.105536
MEAN_MOTION    = 12.11659360
ECCENTRICITY   = .14872244
INCLINATION    = 82.6067
RA_OF_ASC_NODE = 9.7787
ARG_OF_PERICENTER = 330.0895
MEAN_ANOMALY   = 22.2648

EPHEMERIS_TYPE = 0
CLASSIFICATION_TYPE = U
NORAD_CAT_ID   = 21819
ELEMENT_SET_NO = 999
REV_AT_EPOCH   = 48471
BSTAR          = .4497864E-3
MEAN_MOTION_DOT = .2272E-4
MEAN_MOTION_DDOT = 0

CCSDS_OMM_VERS = 2.0
CREATION_DATE  = 
ORIGINATOR     = 

OBJECT_NAME    = SL-8 R/B
OBJECT_ID      = 1992-008B
CENTER_NAME    = EARTH
REF_FRAME      = TEME
TIME_SYSTEM    = UTC
MEAN_ELEMENT_THEORY = SGP/SGP4

EPOCH          = 2025-11-30T23:19:43.819680
MEAN_MOTION    = 13.75955094
ECCENTRICITY   = .00357856
INCLINATION    = 82.9264
RA_OF_ASC_NODE = 341.2005
ARG_OF_PERICENTER = 51.9706
MEAN_ANOMALY   = 10.3783

EPHEMERIS_TYPE = 0
CLASSIFICATION_TYPE = U
NORAD_CAT_ID   = 21876
ELEMENT_SET_NO = 999
REV_AT_EPOCH   = 69584
BSTAR          = .15974636E-3
MEAN_MOTION_DOT = .171E-5
MEAN_MOTION_DDOT = 0

CCSDS_OMM_VERS = 2.0
CREATION_DATE  = 
ORIGINATOR     = 

OBJECT_NAME    = SL-8 R/B
OBJECT_ID      = 1992-020B
CENTER_NAME    = EARTH
REF_FRAME      = TEME
TIME_SYSTEM    = UTC
MEAN_ELEMENT_THEORY = SGP/SGP4

EPOCH          = 2025-11-30T18:22:39.800352
MEAN_MOTION    = 13.75524444
ECCENTRICITY   = .00281605
INCLINATION    = 82.9314
RA_OF_ASC_NODE = 227.2081
ARG_OF_PERICENTER = 212.0703
MEAN_ANOMALY   = 207.4202

EPHEMERIS_TYPE = 0
CLASSIFICATION_TYPE = U
NORAD_CAT_ID   = 21938
ELEMENT_SET_NO = 999
REV_AT_EPOCH   = 68753
BSTAR          = .45563855E-4
MEAN_MOTION_DOT = .59E-6
MEAN_MOTION_DDOT = 0

CCSDS_OMM_VERS = 2.0
CREATION_DATE  = 
ORIGINATOR     = 

OBJECT_NAME    = USA 81
OBJECT_ID      = 1992-023A
CENTER_NAME    = EARTH
REF_FRAME      = TEME
TIME_SYSTEM    = UTC
MEAN_ELEMENT_THEORY = SGP/SGP4

EPOCH          = 2025-11-30T22:45:30.892608
MEAN_MOTION    = 14.32320096
ECCENTRICITY   = .00019486
INCLINATION    = 85.0089
RA_OF_ASC_NODE = 188.3761
ARG_OF_PERICENTER = 63.5229
MEAN_ANOMALY   = 296.6164

EPHEMERIS_TYPE = 0
CLASSIFICATION_TYPE = U
NORAD_CAT_ID   = 21949
ELEMENT_SET_NO = 999
REV_AT_EPOCH   = 8065
BSTAR          = .68923929E-4
MEAN_MOTION_DOT = .206E-5
MEAN_MOTION_DDOT = 0

CCSDS_OMM_VERS = 2.0
CREATION_DATE  = 
ORIGINATOR     = 

OBJECT_NAME    = COSMOS 2219
OBJECT_ID      = 1992-076A
CENTER_NAME    = EARTH
REF_FRAME      = TEME
TIME_SYSTEM    = UTC
MEAN_ELEMENT_THEORY = SGP/SGP4

EPOCH          = 2025-11-30T23:33:54.933984
MEAN_MOTION    = 14.14064658
ECCENTRICITY   = .00187757
INCLINATION    = 71.0596
RA_OF_ASC_NODE = 224.4105
ARG_OF_PERICENTER = 343.1284
MEAN_ANOMALY   = 16.9212

EPHEMERIS_TYPE = 0
CLASSIFICATION_TYPE = U
NORAD_CAT_ID   = 22219
ELEMENT_SET_NO = 999
REV_AT_EPOCH   = 70442
BSTAR          = -.11097998E-3
MEAN_MOTION_DOT = -.259E-5
MEAN_MOTION_DDOT = 0

CCSDS_OMM_VERS = 2.0
CREATION_DATE  = 
ORIGINATOR     = 

OBJECT_NAME    = SL-16 R/B
OBJECT_ID      = 1992-076B
CENTER_NAME    = EARTH
REF_FRAME      = TEME
TIME_SYSTEM    = UTC
MEAN_ELEMENT_THEORY = SGP/SGP4

EPOCH          = 2025-11-30T22:46:13.514592
MEAN_MOTION    = 14.16840364
ECCENTRICITY   = .00150705
INCLINATION    = 71.0017
RA_OF_ASC_NODE = 36.3694
ARG_OF_PERICENTER = 249.6520
MEAN_ANOMALY   = 283.1014

EPHEMERIS_TYPE = 0
CLASSIFICATION_TYPE = U
NORAD_CAT_ID   = 22220
ELEMENT_SET_NO = 999
REV_AT_EPOCH   = 70784
BSTAR          = .10223091E-3
MEAN_MOTION_DOT = .157E-5
MEAN_MOTION_DDOT = 0

CCSDS_OMM_VERS = 2.0
CREATION_DATE  = 
ORIGINATOR     = 

OBJECT_NAME    = COSMOS 2221
OBJECT_ID      = 1992-080A
CENTER_NAME    = EARTH
REF_FRAME      = TEME
TIME_SYSTEM    = UTC
MEAN_ELEMENT_THEORY = SGP/SGP4

EPOCH          = 2025-11-30T13:48:28.118016
MEAN_MOTION    = 14.95687387
ECCENTRICITY   = .0015167
INCLINATION    = 82.5056
RA_OF_ASC_NODE = 13.9683
ARG_OF_PERICENTER = 159.9912
MEAN_ANOMALY   = 200.1907

EPHEMERIS_TYPE = 0
CLASSIFICATION_TYPE = U
NORAD_CAT_ID   = 22236
ELEMENT_SET_NO = 999
REV_AT_EPOCH   = 76597
BSTAR          = .18063E-3
MEAN_MOTION_DOT = .2039E-4
MEAN_MOTION_DDOT = 0

CCSDS_OMM_VERS = 2.0
CREATION_DATE  = 
ORIGINATOR     = 

OBJECT_NAME    = SL-16 R/B
OBJECT_ID      = 1992-093B
CENTER_NAME    = EARTH
REF_FRAME      = TEME
TIME_SYSTEM    = UTC
MEAN_ELEMENT_THEORY = SGP/SGP4

EPOCH          = 2025-11-30T22:36:28.593504
MEAN_MOTION    = 14.15425957
ECCENTRICITY   = .00019414
INCLINATION    = 71.0203
RA_OF_ASC_NODE = 211.5608
ARG_OF_PERICENTER = 108.0663
MEAN_ANOMALY   = 252.0671

EPHEMERIS_TYPE = 0
CLASSIFICATION_TYPE = U
NORAD_CAT_ID   = 22285
ELEMENT_SET_NO = 999
REV_AT_EPOCH   = 69918
BSTAR          = -.85408776E-4
MEAN_MOTION_DOT = -.214E-5
MEAN_MOTION_DDOT = 0

